{
  "norad_id": 60264,
  "name": "STARLINK-32121",
  "history": [
    {
      "epoch": "2026-04-13T03:34:32.754144Z",
      "apogee_km": 475.7482978169455,
      "perigee_km": 474.6217487427584,
      "latitude_deg": 1.4086317009896954e-05,
      "longitude_deg": -2.550885740681984,
      "height_km": 476.059754865796,
      "semi_major_axis_km": 6853.322023279851,
      "eccentricity": 8.219e-05,
      "inclination_deg": 53.1607,
      "raan_deg": 252.4295,
      "arg_perigee_deg": 87.5557,
      "mean_anomaly_deg": 272.5538,
      "mean_motion_rev_day": 15.30210063
    },
    {
      "epoch": "2026-04-14T18:45:56.573856Z",
      "apogee_km": 477.61482757462545,
      "perigee_km": 474.49479946111114,
      "latitude_deg": -2.3138831135161313e-05,
      "longitude_deg": 120.40706535255936,
      "height_km": 477.6341096436401,
      "semi_major_axis_km": 6854.191813517868,
      "eccentricity": 0.0002276,
      "inclination_deg": 53.1588,
      "raan_deg": 244.8462,
      "arg_perigee_deg": 115.9473,
      "mean_anomaly_deg": 244.1762,
      "mean_motion_rev_day": 15.29918799
    },
    {
      "epoch": "2026-04-15T16:42:37.687392Z",
      "apogee_km": 475.8173009000311,
      "perigee_km": 474.6357810255695,
      "latitude_deg": -2.7152480792383923e-05,
      "longitude_deg": 146.08821867369159,
      "height_km": 476.16053146674915,
      "semi_major_axis_km": 6853.3635409628005,
      "eccentricity": 8.62e-05,
      "inclination_deg": 53.1606,
      "raan_deg": 240.5999,
      "arg_perigee_deg": 93.4256,
      "mean_anomaly_deg": 266.6843,
      "mean_motion_rev_day": 15.30196158
    },
    {
      "epoch": "2026-04-16T17:47:28.993056Z",
      "apogee_km": 475.7308158799806,
      "perigee_km": 474.76860038615905,
      "latitude_deg": 1.0906473647758786e-05,
      "longitude_deg": 123.98943872705712,
      "height_km": 476.1081666509558,
      "semi_major_axis_km": 6853.38670813307,
      "eccentricity": 7.02e-05,
      "inclination_deg": 53.16,
      "raan_deg": 235.7449,
      "arg_perigee_deg": 85.1865,
      "mean_anomaly_deg": 274.9216,
      "mean_motion_rev_day": 15.30188399
    },
    {
      "epoch": "2026-04-17T12:36:07.739712Z",
      "apogee_km": 475.764349152646,
      "perigee_km": 474.7204424030806,
      "latitude_deg": 4.899232903183435e-06,
      "longitude_deg": -162.5855396358288,
      "height_km": 476.12468374462753,
      "semi_major_axis_km": 6853.379395777863,
      "eccentricity": 7.616e-05,
      "inclination_deg": 53.1598,
      "raan_deg": 232.1039,
      "arg_perigee_deg": 88.1949,
      "mean_anomaly_deg": 271.9139,
      "mean_motion_rev_day": 15.30190848
    },
    {
      "epoch": "2026-04-18T13:40:58.236672Z",
      "apogee_km": 475.69387441734125,
      "perigee_km": 474.7672991196114,
      "latitude_deg": -9.855898906595292e-06,
      "longitude_deg": 175.3192184299347,
      "height_km": 476.1135636982986,
      "semi_major_axis_km": 6853.367586768476,
      "eccentricity": 6.76e-05,
      "inclination_deg": 53.1592,
      "raan_deg": 227.2491,
      "arg_perigee_deg": 88.0453,
      "mean_anomaly_deg": 272.0625,
      "mean_motion_rev_day": 15.30194803
    },
    {
      "epoch": "2026-04-19T11:37:42.440736Z",
      "apogee_km": 475.6249266483492,
      "perigee_km": 474.8165045722162,
      "latitude_deg": -1.602477095407286e-05,
      "longitude_deg": -159.0148446488186,
      "height_km": 476.14046779820507,
      "semi_major_axis_km": 6853.357715610283,
      "eccentricity": 5.898e-05,
      "inclination_deg": 53.1584,
      "raan_deg": 223.0005,
      "arg_perigee_deg": 92.9704,
      "mean_anomaly_deg": 267.1364,
      "mean_motion_rev_day": 15.30198109
    }
  ]
}